[Satellite]
VERSION=1.1
NAME=GOES 2 [-]
NICKNAME=GOES 2 [-]
TLE1=1 10061U 77048A   17185.06537167 -.00000162  00000-0  00000-0 0  9991
TLE2=2 10061  13.2559 327.3845 0015479 317.3861  21.6458  0.99401112 91005
